LEMUR-2-KUTAR           
1 67363U 26004A   26039.94408590  .00005729  00000+0  64384-3 0  9996
2 67363  97.8008  40.5998 0008428 191.4597 168.6428 14.87078615  4211
LEMUR-2-CALLUM-K-J      
1 67364U 26004B   26039.94213418  .00005926  00000+0  66358-3 0  9992
2 67364  97.8011  40.6027 0008392 187.0268 173.0832 14.87213232  4222
LEMUR-2-MARIO-SOUSA     
1 67365U 26004C   26039.94173428  .00005932  00000+0  66393-3 0  9995
2 67365  97.7987  40.5981 0007960 192.0983 168.0044 14.87234284  4221
TWILIGHT D              
1 67366U 26004D   26039.94165136  .00003765  00000+0  42444-3 0  9996
2 67366  97.8045  40.6102 0008577 181.4905 178.6287 14.87160744  4220
LEMUR-2-SONNENBLUME     
1 67367U 26004E   26039.93954129  .00006056  00000+0  67584-3 0  9992
2 67367  97.7975  40.5982 0007421 193.1824 166.9200 14.87353099  4226
LEMUR-2-WOBLER          
1 67368U 26004F   26039.93888319  .00005450  00000+0  60847-3 0  9992
2 67368  97.8035  40.6125 0007928 182.2231 177.8951 14.87372847  4224
TWILIGHT G              
1 67369U 26004G   26039.93848114  .00002923  00000+0  32993-3 0  9995
2 67369  97.7965  40.5983 0006751 195.6652 164.4357 14.87292661  4222
LEMUR-2-GRAM-E-SUE      
1 67370U 26004H   26039.93675232  .00005714  00000+0  63597-3 0  9991
2 67370  97.7962  40.5996 0006517 194.2144 165.8890 14.87489322  4225
UMBRA-12                
1 67371U 26004J   26039.92979292  .00006036  00000+0  66455-3 0  9998
2 67371  97.8005  40.6175 0006038 178.2584 181.8654 14.87914531  4224
ICEYE-X63               
1 67372U 26004K   26039.79070629  .00003005  00000+0  33335-3 0  9994
2 67372  97.7982  40.4857 0004212 173.4811 186.6461 14.87989484  4201
ICEYE-X64               
1 67373U 26004L   26039.93269718  .00002913  00000+0  32651-3 0  9997
2 67373  97.7997  40.6120 0005690 184.6241 175.4924 14.87590420  4225
AETHER-3                
1 67374U 26004M   26039.92629865  .00002460  00000+0  27433-3 0  9999
2 67374  97.7981  40.6152 0004467 173.5928 186.5347 14.87945569  4224
