CCSDS_OMM_VERS = 2.0
CREATION_DATE  = 
ORIGINATOR     = 

OBJECT_NAME    = LEMUR-2-KUTAR
OBJECT_ID      = 2026-004A
CENTER_NAME    = EARTH
REF_FRAME      = TEME
TIME_SYSTEM    = UTC
MEAN_ELEMENT_THEORY = SGP/SGP4

EPOCH          = 2026-02-08T22:39:29.021760
MEAN_MOTION    = 14.87078615
ECCENTRICITY   = .00084286
INCLINATION    = 97.8008
RA_OF_ASC_NODE = 40.5998
ARG_OF_PERICENTER = 191.4597
MEAN_ANOMALY   = 168.6428

EPHEMERIS_TYPE = 0
CLASSIFICATION_TYPE = U
NORAD_CAT_ID   = 67363
ELEMENT_SET_NO = 999
REV_AT_EPOCH   = 421
BSTAR          = .64383529E-3
MEAN_MOTION_DOT = .5729E-4
MEAN_MOTION_DDOT = 0

CCSDS_OMM_VERS = 2.0
CREATION_DATE  = 
ORIGINATOR     = 

OBJECT_NAME    = LEMUR-2-CALLUM-K-J
OBJECT_ID      = 2026-004B
CENTER_NAME    = EARTH
REF_FRAME      = TEME
TIME_SYSTEM    = UTC
MEAN_ELEMENT_THEORY = SGP/SGP4

EPOCH          = 2026-02-08T22:36:40.393152
MEAN_MOTION    = 14.87213232
ECCENTRICITY   = .00083927
INCLINATION    = 97.8011
RA_OF_ASC_NODE = 40.6027
ARG_OF_PERICENTER = 187.0268
MEAN_ANOMALY   = 173.0832

EPHEMERIS_TYPE = 0
CLASSIFICATION_TYPE = U
NORAD_CAT_ID   = 67364
ELEMENT_SET_NO = 999
REV_AT_EPOCH   = 422
BSTAR          = .66357858E-3
MEAN_MOTION_DOT = .5926E-4
MEAN_MOTION_DDOT = 0

CCSDS_OMM_VERS = 2.0
CREATION_DATE  = 
ORIGINATOR     = 

OBJECT_NAME    = LEMUR-2-MARIO-SOUSA
OBJECT_ID      = 2026-004C
CENTER_NAME    = EARTH
REF_FRAME      = TEME
TIME_SYSTEM    = UTC
MEAN_ELEMENT_THEORY = SGP/SGP4

EPOCH          = 2026-02-08T22:36:05.841792
MEAN_MOTION    = 14.87234284
ECCENTRICITY   = .00079607
INCLINATION    = 97.7987
RA_OF_ASC_NODE = 40.5981
ARG_OF_PERICENTER = 192.0983
MEAN_ANOMALY   = 168.0044

EPHEMERIS_TYPE = 0
CLASSIFICATION_TYPE = U
NORAD_CAT_ID   = 67365
ELEMENT_SET_NO = 999
REV_AT_EPOCH   = 422
BSTAR          = .66393369E-3
MEAN_MOTION_DOT = .5932E-4
MEAN_MOTION_DDOT = 0

CCSDS_OMM_VERS = 2.0
CREATION_DATE  = 
ORIGINATOR     = 

OBJECT_NAME    = TWILIGHT D
OBJECT_ID      = 2026-004D
CENTER_NAME    = EARTH
REF_FRAME      = TEME
TIME_SYSTEM    = UTC
MEAN_ELEMENT_THEORY = SGP/SGP4

EPOCH          = 2026-02-08T22:35:58.677504
MEAN_MOTION    = 14.87160744
ECCENTRICITY   = .00085774
INCLINATION    = 97.8045
RA_OF_ASC_NODE = 40.6102
ARG_OF_PERICENTER = 181.4905
MEAN_ANOMALY   = 178.6287

EPHEMERIS_TYPE = 0
CLASSIFICATION_TYPE = U
NORAD_CAT_ID   = 67366
ELEMENT_SET_NO = 999
REV_AT_EPOCH   = 422
BSTAR          = .42444343E-3
MEAN_MOTION_DOT = .3765E-4
MEAN_MOTION_DDOT = 0

CCSDS_OMM_VERS = 2.0
CREATION_DATE  = 
ORIGINATOR     = 

OBJECT_NAME    = LEMUR-2-SONNENBLUME
OBJECT_ID      = 2026-004E
CENTER_NAME    = EARTH
REF_FRAME      = TEME
TIME_SYSTEM    = UTC
MEAN_ELEMENT_THEORY = SGP/SGP4

EPOCH          = 2026-02-08T22:32:56.367456
MEAN_MOTION    = 14.87353099
ECCENTRICITY   = .0007421
INCLINATION    = 97.7975
RA_OF_ASC_NODE = 40.5982
ARG_OF_PERICENTER = 193.1824
MEAN_ANOMALY   = 166.9200

EPHEMERIS_TYPE = 0
CLASSIFICATION_TYPE = U
NORAD_CAT_ID   = 67367
ELEMENT_SET_NO = 999
REV_AT_EPOCH   = 422
BSTAR          = .6758446E-3
MEAN_MOTION_DOT = .6056E-4
MEAN_MOTION_DDOT = 0

CCSDS_OMM_VERS = 2.0
CREATION_DATE  = 
ORIGINATOR     = 

OBJECT_NAME    = LEMUR-2-WOBLER
OBJECT_ID      = 2026-004F
CENTER_NAME    = EARTH
REF_FRAME      = TEME
TIME_SYSTEM    = UTC
MEAN_ELEMENT_THEORY = SGP/SGP4

EPOCH          = 2026-02-08T22:31:59.507616
MEAN_MOTION    = 14.87372847
ECCENTRICITY   = .0007928
INCLINATION    = 97.8035
RA_OF_ASC_NODE = 40.6125
ARG_OF_PERICENTER = 182.2231
MEAN_ANOMALY   = 177.8951

EPHEMERIS_TYPE = 0
CLASSIFICATION_TYPE = U
NORAD_CAT_ID   = 67368
ELEMENT_SET_NO = 999
REV_AT_EPOCH   = 422
BSTAR          = .608467E-3
MEAN_MOTION_DOT = .545E-4
MEAN_MOTION_DDOT = 0

CCSDS_OMM_VERS = 2.0
CREATION_DATE  = 
ORIGINATOR     = 

OBJECT_NAME    = TWILIGHT G
OBJECT_ID      = 2026-004G
CENTER_NAME    = EARTH
REF_FRAME      = TEME
TIME_SYSTEM    = UTC
MEAN_ELEMENT_THEORY = SGP/SGP4

EPOCH          = 2026-02-08T22:31:24.770496
MEAN_MOTION    = 14.87292661
ECCENTRICITY   = .00067518
INCLINATION    = 97.7965
RA_OF_ASC_NODE = 40.5983
ARG_OF_PERICENTER = 195.6652
MEAN_ANOMALY   = 164.4357

EPHEMERIS_TYPE = 0
CLASSIFICATION_TYPE = U
NORAD_CAT_ID   = 67369
ELEMENT_SET_NO = 999
REV_AT_EPOCH   = 422
BSTAR          = .32992697E-3
MEAN_MOTION_DOT = .2923E-4
MEAN_MOTION_DDOT = 0

CCSDS_OMM_VERS = 2.0
CREATION_DATE  = 
ORIGINATOR     = 

OBJECT_NAME    = LEMUR-2-GRAM-E-SUE
OBJECT_ID      = 2026-004H
CENTER_NAME    = EARTH
REF_FRAME      = TEME
TIME_SYSTEM    = UTC
MEAN_ELEMENT_THEORY = SGP/SGP4

EPOCH          = 2026-02-08T22:28:55.400448
MEAN_MOTION    = 14.87489322
ECCENTRICITY   = .00065173
INCLINATION    = 97.7962
RA_OF_ASC_NODE = 40.5996
ARG_OF_PERICENTER = 194.2144
MEAN_ANOMALY   = 165.8890

EPHEMERIS_TYPE = 0
CLASSIFICATION_TYPE = U
NORAD_CAT_ID   = 67370
ELEMENT_SET_NO = 999
REV_AT_EPOCH   = 422
BSTAR          = .63596658E-3
MEAN_MOTION_DOT = .5714E-4
MEAN_MOTION_DDOT = 0

CCSDS_OMM_VERS = 2.0
CREATION_DATE  = 
ORIGINATOR     = 

OBJECT_NAME    = UMBRA-12
OBJECT_ID      = 2026-004J
CENTER_NAME    = EARTH
REF_FRAME      = TEME
TIME_SYSTEM    = UTC
MEAN_ELEMENT_THEORY = SGP/SGP4

EPOCH          = 2026-02-08T22:18:54.108288
MEAN_MOTION    = 14.87914531
ECCENTRICITY   = .00060386
INCLINATION    = 97.8005
RA_OF_ASC_NODE = 40.6175
ARG_OF_PERICENTER = 178.2584
MEAN_ANOMALY   = 181.8654

EPHEMERIS_TYPE = 0
CLASSIFICATION_TYPE = U
NORAD_CAT_ID   = 67371
ELEMENT_SET_NO = 999
REV_AT_EPOCH   = 422
BSTAR          = .66454553E-3
MEAN_MOTION_DOT = .6036E-4
MEAN_MOTION_DDOT = 0

CCSDS_OMM_VERS = 2.0
CREATION_DATE  = 
ORIGINATOR     = 

OBJECT_NAME    = ICEYE-X63
OBJECT_ID      = 2026-004K
CENTER_NAME    = EARTH
REF_FRAME      = TEME
TIME_SYSTEM    = UTC
MEAN_ELEMENT_THEORY = SGP/SGP4

EPOCH          = 2026-02-08T18:58:37.023456
MEAN_MOTION    = 14.87989484
ECCENTRICITY   = .00042127
INCLINATION    = 97.7982
RA_OF_ASC_NODE = 40.4857
ARG_OF_PERICENTER = 173.4811
MEAN_ANOMALY   = 186.6461

EPHEMERIS_TYPE = 0
CLASSIFICATION_TYPE = U
NORAD_CAT_ID   = 67372
ELEMENT_SET_NO = 999
REV_AT_EPOCH   = 420
BSTAR          = .33334801E-3
MEAN_MOTION_DOT = .3005E-4
MEAN_MOTION_DDOT = 0

CCSDS_OMM_VERS = 2.0
CREATION_DATE  = 
ORIGINATOR     = 

OBJECT_NAME    = ICEYE-X64
OBJECT_ID      = 2026-004L
CENTER_NAME    = EARTH
REF_FRAME      = TEME
TIME_SYSTEM    = UTC
MEAN_ELEMENT_THEORY = SGP/SGP4

EPOCH          = 2026-02-08T22:23:05.036352
MEAN_MOTION    = 14.87590420
ECCENTRICITY   = .00056907
INCLINATION    = 97.7997
RA_OF_ASC_NODE = 40.6120
ARG_OF_PERICENTER = 184.6241
MEAN_ANOMALY   = 175.4924

EPHEMERIS_TYPE = 0
CLASSIFICATION_TYPE = U
NORAD_CAT_ID   = 67373
ELEMENT_SET_NO = 999
REV_AT_EPOCH   = 422
BSTAR          = .32651333E-3
MEAN_MOTION_DOT = .2913E-4
MEAN_MOTION_DDOT = 0

CCSDS_OMM_VERS = 2.0
CREATION_DATE  = 
ORIGINATOR     = 

OBJECT_NAME    = AETHER-3
OBJECT_ID      = 2026-004M
CENTER_NAME    = EARTH
REF_FRAME      = TEME
TIME_SYSTEM    = UTC
MEAN_ELEMENT_THEORY = SGP/SGP4

EPOCH          = 2026-02-08T22:13:52.203360
MEAN_MOTION    = 14.87945569
ECCENTRICITY   = .00044679
INCLINATION    = 97.7981
RA_OF_ASC_NODE = 40.6152
ARG_OF_PERICENTER = 173.5928
MEAN_ANOMALY   = 186.5347

EPHEMERIS_TYPE = 0
CLASSIFICATION_TYPE = U
NORAD_CAT_ID   = 67374
ELEMENT_SET_NO = 999
REV_AT_EPOCH   = 422
BSTAR          = .27433215E-3
MEAN_MOTION_DOT = .246E-4
MEAN_MOTION_DDOT = 0

